NORAD_CAT_ID,OBJECT_NAME,OBJECT_TYPE,EPOCH,MEAN_MOTION,ECCENTRICITY,INCLINATION,RA_OF_ASC_NODE,ARG_OF_PERICENTER,MEAN_ANOMALY,BSTAR,MEAN_MOTION_DOT,MEAN_MOTION_DDOT,TLE_LINE0,TLE_LINE1,TLE_LINE2,SEMIMAJOR_AXIS,PERIOD,APOGEE,PERIGEE,DECAYED
53250.0,STARLINK-4059,PAYLOAD,2022-08-08 06:00:00,15.73231858,0.0001327,53.2194,330.5151,355.4976,200.3527,-5.8024e-05,-8.766e-05,0.0,0 STARLINK-4059,1 53250U 22086J   22220.25001157 -.00008766  00000-0 -58024-4 0  9994,2 53250  53.2194 330.5151 0001327 355.4976 200.3527 15.73231858  2948,6727.804,91.531,350.56199999999984,348.777,0.0
53250.0,STARLINK-4059,PAYLOAD,2022-08-08 12:47:39,15.73265292,0.0001574,53.2197,329.1146,356.6537,3.4473,0.00039751,0.00055695,0.0,0 STARLINK-4059,1 53250U 22086J   22220.53309941  .00055695  00000-0  39751-3 0  9993,2 53250  53.2197 329.1146 0001574 356.6537   3.4473 15.73265292  3198,6727.709,91.529,350.6330000000001,348.515,0.0
53250.0,STARLINK-4059,PAYLOAD,2022-08-08 22:00:00,15.73275229,0.0001754999999999,53.2197,327.2178,8.2935,5.4945,-0.00067491,-0.0009459,0.0,0 STARLINK-4059,1 53250U 22086J   22220.91667824 -.00094590  00000-0 -67491-3 0  9993,2 53250  53.2197 327.2178 0001755   8.2935   5.4945 15.73275229  1303,6727.681,91.529,350.726,348.365,0.0
53250.0,STARLINK-4059,PAYLOAD,2022-08-09 14:00:01,15.73207185,0.0002043,53.22,323.9193,21.9693,169.71099999999996,-0.00070828,-0.00098903,0.0,0 STARLINK-4059,1 53250U 22086J   22221.58334491 -.00098903  00000-0 -70828-3 0  9998,2 53250  53.2200 323.9193 0002043  21.9693 169.7110 15.73207185  3151,6727.875,91.533,351.11400000000015,348.365,0.0
53250.0,STARLINK-4059,PAYLOAD,2022-08-09 22:00:00,15.73141951,0.0001975,53.2197,322.2694,18.9607,261.5973,-1.1828e-05,-2.276e-05,0.0,0 STARLINK-4059,1 53250U 22086J   22221.91667824 -.00002276  00000-0 -11828-4 0  9998,2 53250  53.2197 322.2694 0001975  18.9607 261.5973 15.73141951  1309,6728.061,91.537,351.254,348.597,0.0
53250.0,STARLINK-4059,PAYLOAD,2022-08-10 06:00:00,15.73139149,0.0001810999999999,53.2199,320.6191,22.7607,346.652,0.00059063,0.00082877,0.0,0 STARLINK-4059,1 53250U 22086J   22222.25001157  .00082877  00000-0  59063-3 0  9992,2 53250  53.2199 320.6191 0001811  22.7607 346.6520 15.73139149  3252,6728.069,91.537,351.152,348.715,0.0
53250.0,STARLINK-4059,PAYLOAD,2022-08-10 14:00:01,15.73174149,0.0002091,53.2198,318.9721,21.0435,77.2456,0.00023439,0.00032366,0.0,0 STARLINK-4059,1 53250U 22086J   22222.58334491  .00032366  00000-0  23439-3 0  9994,2 53250  53.2198 318.9721 0002091  21.0435  77.2456 15.73174149  1300,6727.969,91.535,351.241,348.427,0.0
53250.0,STARLINK-4059,PAYLOAD,2022-08-10 16:00:00,15.73165212,0.0002158,53.22,318.5601,20.5131,190.0055,0.00046652,0.00065268,0.0,0 STARLINK-4059,1 53250U 22086J   22222.66667824  .00065268  00000-0  46652-3 0  9991,2 53250  53.2200 318.5601 0002158  20.5131 190.0055 15.73165212  3322,6727.994000000002,91.535,351.311,348.407,0.0
53250.0,STARLINK-4059,PAYLOAD,2022-08-10 22:00:00,15.73247609,0.0002145,53.2199,317.3219,22.6144,164.5858,-0.00076182,-0.00106424,0.0,0 STARLINK-4059,1 53250U 22086J   22222.91667824 -.00106424  00000-0 -76182-3 0  9992,2 53250  53.2199 317.3219 0002145  22.6144 164.5858 15.73247609  1308,6727.759,91.53,351.0680000000001,348.181,0.0
53250.0,STARLINK-4059,PAYLOAD,2022-08-11 06:00:02,15.73203295,0.0002046999999999,53.2176,315.6651,24.0219,252.2017,1.9846e-05,2.165e-05,0.0,0 STARLINK-4059,1 53250U 22086J   22223.25002315  .00002165  00000-0  19846-4 0  9998,2 53250  53.2176 315.6651 0002047  24.0219 252.2017 15.73203295  3413,6727.886,91.533,351.12800000000016,348.374,0.0
53250.0,STARLINK-4059,PAYLOAD,2022-08-11 14:00:01,15.73211273,0.0002254999999999,53.2202,314.024,18.4004,346.7623,-1.2096e-05,-2.32e-05,0.0,0 STARLINK-4059,1 53250U 22086J   22223.58334491 -.00002320  00000-0 -12096-4 0  9992,2 53250  53.2202 314.0240 0002255  18.4004 346.7623 15.73211273  1303,6727.863,91.533,351.245,348.211,0.0
53250.0,STARLINK-4059,PAYLOAD,2022-08-11 22:00:00,15.73236414,0.0002244,53.2198,312.3736,18.0964,76.0303,-0.00041395,-0.00058412,0.0,0 STARLINK-4059,1 53250U 22086J   22223.91667824 -.00058412  00000-0 -41395-3 0  9994,2 53250  53.2198 312.3736 0002244  18.0964  76.0303 15.73236414  3525,6727.791,91.531,351.166,348.147,0.0
53250.0,STARLINK-4059,PAYLOAD,2022-08-12 04:00:00,15.73177668,0.0002121,53.2196,311.1356,22.822,48.0185,0.00059763,0.00084019,0.0,0 STARLINK-4059,1 53250U 22086J   22224.16667824  .00084019  00000-0  59763-3 0  9990,2 53250  53.2196 311.1356 0002121  22.8220  48.0185 15.73177668  3566,6727.959,91.534,351.251,348.397,0.0
53250.0,STARLINK-4059,PAYLOAD,2022-08-12 14:00:01,15.73228525,0.0002418,53.2196,309.0763,19.396,252.6531,-7.7939e-05,-0.0001155999999999,0.0,0 STARLINK-4059,1 53250U 22086J   22224.58334491 -.00011560  00000-0 -77939-4 0  9996,2 53250  53.2196 309.0763 0002418  19.3960 252.6531 15.73228525  1302,6727.814,91.532,351.306,348.052,0.0
53250.0,STARLINK-4059,PAYLOAD,2022-08-12 20:00:01,15.73251693,0.0002417,53.2193,307.8385,18.8484,229.9721,-0.0007032999999999,-0.00098412,0.0,0 STARLINK-4059,1 53250U 22086J   22224.83335648 -.00098412  00000-0 -70330-3 0  9997,2 53250  53.2193 307.8385 0002417  18.8484 229.9721 15.73251693  3660,6727.748000000001,91.53,351.23900000000015,347.987,0.0
53250.0,STARLINK-4059,PAYLOAD,2022-08-12 22:00:01,15.73225637,0.0002362,53.2196,307.4256,20.8169,340.2496,-0.00045594,-0.00064202,0.0,0 STARLINK-4059,1 53250U 22086J   22224.91668981 -.00064202  00000-0 -45594-3 0  9999,2 53250  53.2196 307.4256 0002362  20.8169 340.2496 15.73225637  1313,6727.821999999999,91.532,351.276,348.098,0.0
53250.0,STARLINK-4059,PAYLOAD,2022-08-13 04:00:00,15.73186375,0.0002381999999999,53.2196,306.1874,26.7759,310.9244,-9.418e-05,-0.00013811,0.0,0 STARLINK-4059,1 53250U 22086J   22225.16667824 -.00013811  00000-0 -94180-4 0  9998,2 53250  53.2196 306.1874 0002382  26.7759 310.9244 15.73186375  3713,6727.934,91.534,351.402,348.196,0.0
53250.0,STARLINK-4059,PAYLOAD,2022-08-13 14:00:01,15.73134167,0.0002798,53.2197,304.1282,28.5141,150.3028,0.00039531,0.00055073,0.0,0 STARLINK-4059,1 53250U 22086J   22225.58334491  .00055073  00000-0  39531-3 0  9997,2 53250  53.2197 304.1282 0002798  28.5141 150.3028 15.73134167  1302,6728.083000000001,91.537,351.83,348.065,0.0
53250.0,STARLINK-4059,PAYLOAD,2022-08-13 22:00:00,15.73186212,0.0002663999999999,53.2192,302.4775,28.8141,238.8724,2.2423e-05,2.524e-05,0.0,0 STARLINK-4059,1 53250U 22086J   22225.91667824  .00002524  00000-0  22423-4 0  9999,2 53250  53.2192 302.4775 0002664  28.8141 238.8724 15.73186212  1303,6727.934,91.534,351.592,348.00699999999995,0.0
53250.0,STARLINK-4059,PAYLOAD,2022-08-14 06:00:02,15.73232413,0.0002463,53.2184,300.8239,29.0244,327.6338,-0.00059981,-0.00084095,0.0,0 STARLINK-4059,1 53250U 22086J   22226.25002315 -.00084095  00000-0 -59981-3 0  9998,2 53250  53.2184 300.8239 0002463  29.0244 327.6338 15.73232413  3883,6727.803000000001,91.531,351.325,348.011,0.0
53250.0,STARLINK-4059,PAYLOAD,2022-08-14 14:00:01,15.73171541,0.0002758,53.2189,299.1803,24.0052,61.6042,0.0004868,0.00068179,0.0,0 STARLINK-4059,1 53250U 22086J   22226.58334491  .00068179  00000-0  48680-3 0  9994,2 53250  53.2189 299.1803 0002758  24.0052  61.6042 15.73171541  1300,6727.976,91.535,351.69699999999995,347.986,0.0
53250.0,STARLINK-4059,PAYLOAD,2022-08-14 22:00:00,15.73243545,0.0002627,53.2189,297.5292,22.0664,152.4691,-0.00054596,-0.00076706,0.0,0 STARLINK-4059,1 53250U 22086J   22226.91667824 -.00076706  00000-0 -54596-3 0  9990,2 53250  53.2189 297.5292 0002627  22.0664 152.4691 15.73243545  1309,6727.771,91.531,351.403,347.869,0.0
53250.0,STARLINK-4059,PAYLOAD,2022-08-15 06:00:00,15.73190189,0.000254,53.2191,295.8793,22.4134,241.0445,0.00021798,0.0003007,0.0,0 STARLINK-4059,1 53250U 22086J   22227.25001157  .00030070  00000-0  21798-3 0  9999,2 53250  53.2191 295.8793 0002540  22.4134 241.0445 15.73190189  4040,6727.9230000000025,91.534,351.497,348.079,0.0
53250.0,STARLINK-4059,PAYLOAD,2022-08-15 14:00:01,15.73214271,0.0002819999999999,53.219,294.2317,18.9635,333.4323,-0.00031636,-0.00044822,0.0,0 STARLINK-4059,1 53250U 22086J   22227.58334491 -.00044822  00000-0 -31636-3 0  9999,2 53250  53.2190 294.2317 0002820  18.9635 333.4323 15.73214271  1307,6727.854,91.532,351.617,347.82199999999995,0.0
53250.0,STARLINK-4059,PAYLOAD,2022-08-15 22:00:00,15.73172621,0.0002638999999999,53.2188,292.5806,16.5791,64.7465,0.00019178,0.0002634999999999,0.0,0 STARLINK-4059,1 53250U 22086J   22227.91667824  .00026350  00000-0  19178-3 0  9996,2 53250  53.2188 292.5806 0002639  16.5791  64.7465 15.73172621  4152,6727.973000000001,91.535,351.61400000000015,348.06300000000016,0.0
53250.0,STARLINK-4059,PAYLOAD,2022-08-16 14:00:01,15.732324800000002,0.0002865,53.2185,289.2836,15.372,243.8096,-0.00014418,-0.0002084,0.0,0 STARLINK-4059,1 53250U 22086J   22228.58334491 -.00020840  00000-0 -14418-3 0  9993,2 53250  53.2185 289.2836 0002865  15.3720 243.8096 15.73232480  1309,6727.803000000001,91.531,351.595,347.74,0.0
53250.0,STARLINK-4059,PAYLOAD,2022-08-16 22:00:00,15.73232115,0.0002647,53.2186,287.6321,11.4227,336.7347,-0.00047764,-0.00067227,0.0,0 STARLINK-4059,1 53250U 22086J   22228.91667824 -.00067227  00000-0 -47764-3 0  9999,2 53250  53.2186 287.6321 0002647  11.4227 336.7347 15.73232115  1304,6727.804,91.531,351.449,347.88800000000015,0.0
53250.0,STARLINK-4059,PAYLOAD,2022-08-17 06:00:02,15.73188858,0.0002667,53.2188,285.9825,11.6059,65.5537,0.00014878,0.00020302,0.0,0 STARLINK-4059,1 53250U 22086J   22229.25002315  .00020302  00000-0  14878-3 0  9996,2 53250  53.2188 285.9825 0002667  11.6059  65.5537 15.73188858  4364,6727.927,91.534,351.586,347.99800000000016,0.0
53250.0,STARLINK-4059,PAYLOAD,2022-08-17 14:00:01,15.73207294,0.0002962,53.2184,284.3325,12.4695,153.548,0.00010767,0.00014522,0.0,0 STARLINK-4059,1 53250U 22086J   22229.58334491  .00014522  00000-0  10767-3 0  9995,2 53250  53.2184 284.3325 0002962  12.4695 153.5480 15.73207294  1303,6727.874,91.533,351.732,347.747,0.0
